
 1 90030U RELEAS14 00051.38558242 +.01672663  94000-5  22520-2 4 0035                                                                                                                                                                                                                                                                                                                                                                                                                                                           
 2 90030  28.5475 124.9280 0081002 156.8669 205.7976 16.0204499601011                                                                                                                                                                                                                                                                                                                                                                                                                                                           

         0.0000000       16.0204500        0.0081002       28.5475000      124.9280000      156.8669000      205.7976000
      2700.0000000       16.0270699        0.0077651       28.5473158      110.6478835      179.6589137      232.9371282
      5400.0000000       16.0337789        0.0074318       28.5473139       96.3535710      203.0612517      264.0006461
      8100.0000000       16.0406149        0.0071314       28.5475561       82.0455780      227.0832421      299.0491399
     10800.0000000       16.0476088        0.0068913       28.5477701       67.7238136      251.6075234      338.2913517
     13500.0000000       16.0548593        0.0067259       28.5477749       53.3874425      276.4013575       22.1008433
     16200.0000000       16.0624800        0.0066344       28.5476398       39.0354243      301.1630633       70.9913783
     18900.0000000       16.0705900        0.0066001       28.5475043       24.6669039      325.6080882      125.5392448
     21600.0000000       16.0792823        0.0065960       28.5473327       10.2809898      349.5399255      186.3108540
     24300.0000000       16.0886020        0.0065912       28.5469624      355.8763006       12.8801106      253.7926807
     27000.0000000       16.0985490        0.0065570       28.5464287      341.4510179       35.6443104      328.4054983
     29700.0000000       16.1091302        0.0064690       28.5459846      327.0038124       57.9252794       50.4790140
     32400.0000000       16.1203668        0.0063090       28.5456608      312.5338860       79.8573146      140.3175673
     35100.0000000       16.1323393        0.0060660       28.5451717      298.0398952      101.6253486      238.2057474
     37800.0000000       16.1451404        0.0057380       28.5444806      283.5194819      123.4663073      344.4391200
     40500.0000000       16.1588764        0.0053345       28.5440012      268.9704754      145.6712425       99.3277875
     43200.0000000       16.1736472        0.0048774       28.5439380      254.3915746      168.5884129      223.1884979


 1 90031U RELEAS14 00051.38558242 +.00168784  00000 0  70845-3 4 0046                                                                                                                                                                                                                                                                                                                                                                                                                                                           
 2 90031  63.9976   6.4832 7509563 239.3244 315.9903  2.0525984300303                                                                                                                                                                                                                                                                                                                                                                                                                                                           

         0.0000000        2.0525984        0.7509563       63.9976000        6.4832000      239.3244000      315.9903000
      2700.0000000        2.0528579        0.7510700       64.0011396        6.1756629      239.2956885      261.5024948
      5400.0000000        2.0531278        0.7512140       63.9998247        5.8632532      239.2753062      207.1757956
      8100.0000000        2.0534184        0.7513133       63.9939301        5.5443839      239.2630437      153.0283124
     10800.0000000        2.0537257        0.7513369       63.9857560        5.2211846      239.2552636       99.0834008
     13500.0000000        2.0540329        0.7512929       63.9781568        4.8972576      239.2474615       45.3547199
     16200.0000000        2.0543328        0.7512189       63.9736647        4.5764643      239.2354042      351.8431022
     18900.0000000        2.0546421        0.7511748       63.9735380        4.2615686      239.2167307      298.5468046
     21600.0000000        2.0550025        0.7512217       63.9765428        3.9519405      239.1934568      245.4765296
     24300.0000000        2.0554839        0.7513717       63.9786258        3.6418464      239.1727726      192.6746879
     27000.0000000        2.0562052        0.7515450       63.9754512        3.3232259      239.1620709      140.2516972
     29700.0000000        2.0572820        0.7516128       63.9667562        2.9932922      239.1604538       88.4218369
     32400.0000000        2.0585692        0.7515304       63.9573011        2.6589317      239.1572587       37.4151879
     35100.0000000        2.0597589        0.7513923       63.9522027        2.3309708      239.1421016      347.2731243
     37800.0000000        2.0608532        0.7513247       63.9517981        2.0136678      239.1159340      297.9023532
     40500.0000000        2.0621959        0.7513572       63.9520230        1.7014228      239.0899673      249.3202031
     43200.0000000        2.0645761        0.7513781       63.9491984        1.3857006      239.0742619      201.9154893


 1 90032U RELEAS14 00051.38558242 +.00332394  00000 0  96401-4 4 0062                                                                                                                                                                                                                                                                                                                                                                                                                                                           
 2 90032  63.8221 352.9474 7190794 239.0801 307.3271  2.4861841700210                                                                                                                                                                                                                                                                                                                                                                                                                                                           

         0.0000000        2.4861842        0.7190794       63.8221000      352.9474000      239.0801000      307.3271000
      2700.0000000        2.4904749        0.7189024       63.8217920      352.5497168      239.0605616      186.6797352
      5400.0000000        2.4986095        0.7184337       63.8181669      352.1456972      239.0493248       70.0845068
      8100.0000000        2.5120739        0.7175113       63.8127472      351.7352303      239.0431470      320.7693707
     10800.0000000        2.5291971        0.7162524       63.8075091      351.3202672      239.0368567      221.9707092
     13500.0000000        2.5464895        0.7149414       63.8039991      350.9034676      239.0264446      134.9649175
     16200.0000000        2.5623772        0.7137374       63.8027300      350.4870176      239.0098428       59.1555073
     18900.0000000        2.5785930        0.7125614       63.8030099      350.0712315      238.9887690      353.9875543
     21600.0000000        2.6007979        0.7110266       63.8029737      349.6530244      238.9682516      301.2907263
     24300.0000000        2.6421762        0.7081446       63.8002572      349.2251603      238.9539592      268.9724891
     27000.0000000        2.7246894        0.7022560       63.7925194      348.7771450      238.9466044      277.3234716
     29700.0000000        2.8575062        0.6927356       63.7823908      348.3011137      238.9512476      358.7078099
     32400.0000000        3.0134322        0.6816440       63.7724641      347.7945979      238.9442283      179.7944249
     35100.0000000        3.1669464        0.6709025       63.7658686      347.2608821      238.9278032      105.4634920
     37800.0000000        3.3401432        0.6590693       63.7635602      346.6982994      238.9183366      138.7798219
     40500.0000000        3.5837889        0.6427966       63.7590538      346.0894905      238.9016734      309.6686967
     43200.0000000        3.9711543        0.6176260       63.7526789      345.4054140      238.8959959      328.6916718

